[{"OBJECT_NAME":"STARLINK-11440 [DTC]","OBJECT_ID":"2025-004C","EPOCH":"2026-02-27T05:52:48.106272","MEAN_MOTION":15.71029946,"ECCENTRICITY":0.00040743,"INCLINATION":43.0006,"RA_OF_ASC_NODE":133.8863,"ARG_OF_PERICENTER":317.2582,"MEAN_ANOMALY":42.7968,"EPHEMERIS_TYPE":0,"CLASSIFICATION_TYPE":"U","NORAD_CAT_ID":62513,"ELEMENT_SET_NO":999,"REV_AT_EPOCH":6556,"BSTAR":0.0015738249,"MEAN_MOTION_DOT":0.00208343,"MEAN_MOTION_DDOT":0},{"OBJECT_NAME":"STARLINK-11514 [DTC]","OBJECT_ID":"2025-004D","EPOCH":"2026-02-27T05:23:31.393824","MEAN_MOTION":15.70896104,"ECCENTRICITY":0.00019296,"INCLINATION":43.0003,"RA_OF_ASC_NODE":133.7202,"ARG_OF_PERICENTER":295.4134,"MEAN_ANOMALY":64.6533,"EPHEMERIS_TYPE":0,"CLASSIFICATION_TYPE":"U","NORAD_CAT_ID":62514,"ELEMENT_SET_NO":999,"REV_AT_EPOCH":6556,"BSTAR":0.0015935589,"MEAN_MOTION_DOT":0.00209766,"MEAN_MOTION_DDOT":0},{"OBJECT_NAME":"STARLINK-11508 [DTC]","OBJECT_ID":"2025-004E","EPOCH":"2026-02-27T05:14:33.486432","MEAN_MOTION":15.70992074,"ECCENTRICITY":0.00011689,"INCLINATION":42.9988,"RA_OF_ASC_NODE":133.669,"ARG_OF_PERICENTER":243.9157,"MEAN_ANOMALY":116.1591,"EPHEMERIS_TYPE":0,"CLASSIFICATION_TYPE":"U","NORAD_CAT_ID":62515,"ELEMENT_SET_NO":999,"REV_AT_EPOCH":6556,"BSTAR":0.0016606543,"MEAN_MOTION_DOT":0.00219765,"MEAN_MOTION_DDOT":0},{"OBJECT_NAME":"STARLINK-11510 [DTC]","OBJECT_ID":"2025-004F","EPOCH":"2026-02-27T06:00:26.585280","MEAN_MOTION":15.71059263,"ECCENTRICITY":0.00018084,"INCLINATION":43.0012,"RA_OF_ASC_NODE":133.9269,"ARG_OF_PERICENTER":241.6287,"MEAN_ANOMALY":118.4399,"EPHEMERIS_TYPE":0,"CLASSIFICATION_TYPE":"U","NORAD_CAT_ID":62516,"ELEMENT_SET_NO":999,"REV_AT_EPOCH":6556,"BSTAR":0.0029091763,"MEAN_MOTION_DOT":0.00394738,"MEAN_MOTION_DDOT":0},{"OBJECT_NAME":"STARLINK-11512 [DTC]","OBJECT_ID":"2025-004G","EPOCH":"2026-02-27T04:51:37.793664","MEAN_MOTION":15.71016662,"ECCENTRICITY":0.00018547,"INCLINATION":43,"RA_OF_ASC_NODE":133.5412,"ARG_OF_PERICENTER":246.2472,"MEAN_ANOMALY":113.8201,"EPHEMERIS_TYPE":0,"CLASSIFICATION_TYPE":"U","NORAD_CAT_ID":62517,"ELEMENT_SET_NO":999,"REV_AT_EPOCH":6556,"BSTAR":0.0026398175,"MEAN_MOTION_DOT":0.00355813,"MEAN_MOTION_DDOT":0},{"OBJECT_NAME":"STARLINK-11450 [DTC]","OBJECT_ID":"2025-004H","EPOCH":"2026-02-27T00:00:02.999808","MEAN_MOTION":15.70917075,"ECCENTRICITY":0.00014209,"INCLINATION":43.0012,"RA_OF_ASC_NODE":135.2102,"ARG_OF_PERICENTER":272.5047,"MEAN_ANOMALY":200.7183,"EPHEMERIS_TYPE":0,"CLASSIFICATION_TYPE":"U","NORAD_CAT_ID":62518,"ELEMENT_SET_NO":999,"REV_AT_EPOCH":589,"BSTAR":-0.0014821585,"MEAN_MOTION_DOT":-0.00187023,"MEAN_MOTION_DDOT":0},{"OBJECT_NAME":"STARLINK-11507 [DTC]","OBJECT_ID":"2025-004J","EPOCH":"2026-02-26T12:57:59.355648","MEAN_MOTION":15.70997349,"ECCENTRICITY":0.0002665,"INCLINATION":43.0006,"RA_OF_ASC_NODE":138.0563,"ARG_OF_PERICENTER":241.733,"MEAN_ANOMALY":118.3269,"EPHEMERIS_TYPE":0,"CLASSIFICATION_TYPE":"U","NORAD_CAT_ID":62519,"ELEMENT_SET_NO":999,"REV_AT_EPOCH":6545,"BSTAR":0.0016522,"MEAN_MOTION_DOT":0.00218672,"MEAN_MOTION_DDOT":0},{"OBJECT_NAME":"STARLINK-11482 [DTC]","OBJECT_ID":"2025-004K","EPOCH":"2026-02-27T04:59:16.705536","MEAN_MOTION":15.71003636,"ECCENTRICITY":0.00022145,"INCLINATION":43.0021,"RA_OF_ASC_NODE":133.5841,"ARG_OF_PERICENTER":265,"MEAN_ANOMALY":95.0615,"EPHEMERIS_TYPE":0,"CLASSIFICATION_TYPE":"U","NORAD_CAT_ID":62520,"ELEMENT_SET_NO":999,"REV_AT_EPOCH":6556,"BSTAR":0.0024805637,"MEAN_MOTION_DOT":0.00333219,"MEAN_MOTION_DDOT":0},{"OBJECT_NAME":"STARLINK-11528 [DTC]","OBJECT_ID":"2025-004L","EPOCH":"2026-02-27T06:08:05.211168","MEAN_MOTION":15.70801847,"ECCENTRICITY":0.00040601,"INCLINATION":43.0011,"RA_OF_ASC_NODE":133.963,"ARG_OF_PERICENTER":293.4846,"MEAN_ANOMALY":66.5595,"EPHEMERIS_TYPE":0,"CLASSIFICATION_TYPE":"U","NORAD_CAT_ID":62521,"ELEMENT_SET_NO":999,"REV_AT_EPOCH":6556,"BSTAR":0.0022967493,"MEAN_MOTION_DOT":0.00304886,"MEAN_MOTION_DDOT":0},{"OBJECT_NAME":"STARLINK-11516 [DTC]","OBJECT_ID":"2025-004M","EPOCH":"2026-02-27T05:22:12.590976","MEAN_MOTION":15.70975101,"ECCENTRICITY":0.00010934,"INCLINATION":42.9993,"RA_OF_ASC_NODE":133.7096,"ARG_OF_PERICENTER":227.953,"MEAN_ANOMALY":132.1245,"EPHEMERIS_TYPE":0,"CLASSIFICATION_TYPE":"U","NORAD_CAT_ID":62522,"ELEMENT_SET_NO":999,"REV_AT_EPOCH":6556,"BSTAR":0.0016615308,"MEAN_MOTION_DOT":0.00219723,"MEAN_MOTION_DDOT":0},{"OBJECT_NAME":"STARLINK-11527 [DTC]","OBJECT_ID":"2025-004N","EPOCH":"2026-02-27T05:06:54.957312","MEAN_MOTION":15.71024738,"ECCENTRICITY":0.00016408,"INCLINATION":42.9998,"RA_OF_ASC_NODE":133.623,"ARG_OF_PERICENTER":248.5252,"MEAN_ANOMALY":111.5441,"EPHEMERIS_TYPE":0,"CLASSIFICATION_TYPE":"U","NORAD_CAT_ID":62523,"ELEMENT_SET_NO":999,"REV_AT_EPOCH":6556,"BSTAR":0.0022919162,"MEAN_MOTION_DOT":0.00307139,"MEAN_MOTION_DDOT":0},{"OBJECT_NAME":"STARLINK-32748","OBJECT_ID":"2025-004P","EPOCH":"2026-02-26T23:39:26.487936","MEAN_MOTION":15.27601193,"ECCENTRICITY":0.00014632,"INCLINATION":43.0005,"RA_OF_ASC_NODE":280.1478,"ARG_OF_PERICENTER":274.4255,"MEAN_ANOMALY":85.6429,"EPHEMERIS_TYPE":0,"CLASSIFICATION_TYPE":"U","NORAD_CAT_ID":62524,"ELEMENT_SET_NO":999,"REV_AT_EPOCH":6482,"BSTAR":0.0011748578,"MEAN_MOTION_DOT":0.0003223,"MEAN_MOTION_DDOT":0},{"OBJECT_NAME":"STARLINK-32777","OBJECT_ID":"2025-004Q","EPOCH":"2026-02-26T23:02:38.497056","MEAN_MOTION":15.27595533,"ECCENTRICITY":0.00019144,"INCLINATION":42.9993,"RA_OF_ASC_NODE":280.8143,"ARG_OF_PERICENTER":247.0894,"MEAN_ANOMALY":112.9756,"EPHEMERIS_TYPE":0,"CLASSIFICATION_TYPE":"U","NORAD_CAT_ID":62525,"ELEMENT_SET_NO":999,"REV_AT_EPOCH":6481,"BSTAR":0.00077203168,"MEAN_MOTION_DOT":0.00021054,"MEAN_MOTION_DDOT":0},{"OBJECT_NAME":"STARLINK-32741","OBJECT_ID":"2025-004R","EPOCH":"2026-02-27T00:20:50.323776","MEAN_MOTION":15.27599216,"ECCENTRICITY":0.00019119,"INCLINATION":43.0005,"RA_OF_ASC_NODE":276.9008,"ARG_OF_PERICENTER":258.7906,"MEAN_ANOMALY":101.2731,"EPHEMERIS_TYPE":0,"CLASSIFICATION_TYPE":"U","NORAD_CAT_ID":62526,"ELEMENT_SET_NO":999,"REV_AT_EPOCH":6486,"BSTAR":0.00083446482,"MEAN_MOTION_DOT":0.00022785,"MEAN_MOTION_DDOT":0},{"OBJECT_NAME":"STARLINK-32754","OBJECT_ID":"2025-004S","EPOCH":"2026-02-27T00:01:38.632512","MEAN_MOTION":15.2759683,"ECCENTRICITY":0.0001873,"INCLINATION":43.006,"RA_OF_ASC_NODE":280.2628,"ARG_OF_PERICENTER":284.5502,"MEAN_ANOMALY":75.5142,"EPHEMERIS_TYPE":0,"CLASSIFICATION_TYPE":"U","NORAD_CAT_ID":62527,"ELEMENT_SET_NO":999,"REV_AT_EPOCH":6387,"BSTAR":0.00073643624,"MEAN_MOTION_DOT":0.00020069,"MEAN_MOTION_DDOT":0},{"OBJECT_NAME":"STARLINK-32786","OBJECT_ID":"2025-004T","EPOCH":"2026-02-27T00:47:41.046144","MEAN_MOTION":15.27611789,"ECCENTRICITY":0.00018452,"INCLINATION":43.002,"RA_OF_ASC_NODE":279.6417,"ARG_OF_PERICENTER":266.376,"MEAN_ANOMALY":93.688,"EPHEMERIS_TYPE":0,"CLASSIFICATION_TYPE":"U","NORAD_CAT_ID":62528,"ELEMENT_SET_NO":999,"REV_AT_EPOCH":6388,"BSTAR":0.00097824962,"MEAN_MOTION_DOT":0.00026781,"MEAN_MOTION_DDOT":0}]
