STARLINK-11440 [DTC]    
1 62513U 25004C   26058.24500123  .00208343  00000+0  15738-2 0  9991
2 62513  43.0006 133.8863 0004074 317.2582  42.7968 15.71029946 65569
STARLINK-11514 [DTC]    
1 62514U 25004D   26058.22466891  .00209766  00000+0  15936-2 0  9993
2 62514  43.0003 133.7202 0001929 295.4134  64.6533 15.70896104 65567
STARLINK-11508 [DTC]    
1 62515U 25004E   26058.21844313  .00219765  00000+0  16607-2 0  9998
2 62515  42.9988 133.6690 0001168 243.9157 116.1591 15.70992074 65566
STARLINK-11510 [DTC]    
1 62516U 25004F   26058.25030770  .00394738  00000+0  29092-2 0  9993
2 62516  43.0012 133.9269 0001808 241.6287 118.4399 15.71059263 65568
STARLINK-11512 [DTC]    
1 62517U 25004G   26058.20252076  .00355813  00000+0  26398-2 0  9991
2 62517  43.0000 133.5412 0001854 246.2472 113.8201 15.71016662 65567
STARLINK-11450 [DTC]    
1 62518U 25004H   26058.00003472 -.00187023  00000+0 -14822-2 0  9991
2 62518  43.0012 135.2102 0001420 272.5047 200.7183 15.70917075  5897
STARLINK-11507 [DTC]    
1 62519U 25004J   26057.54027032  .00218672  00000+0  16522-2 0  9990
2 62519  43.0006 138.0563 0002665 241.7330 118.3269 15.70997349 65457
STARLINK-11482 [DTC]    
1 62520U 25004K   26058.20783224  .00333219  00000+0  24806-2 0  9997
2 62520  43.0021 133.5841 0002214 265.0000  95.0615 15.71003636 65564
STARLINK-11528 [DTC]    
1 62521U 25004L   26058.25561587  .00304886  00000+0  22967-2 0  9993
2 62521  43.0011 133.9630 0004060 293.4846  66.5595 15.70801847 65567
STARLINK-11516 [DTC]    
1 62522U 25004M   26058.22375684  .00219723  00000+0  16615-2 0  9990
2 62522  42.9993 133.7096 0001093 227.9530 132.1245 15.70975101 65561
STARLINK-11527 [DTC]    
1 62523U 25004N   26058.21313608  .00307139  00000+0  22919-2 0  9991
2 62523  42.9998 133.6230 0001640 248.5252 111.5441 15.71024738 65565
STARLINK-32748          
1 62524U 25004P   26057.98572324  .00032230  00000+0  11749-2 0  9993
2 62524  43.0005 280.1478 0001463 274.4255  85.6429 15.27601193 64825
STARLINK-32777          
1 62525U 25004Q   26057.96016779  .00021054  00000+0  77203-3 0  9999
2 62525  42.9993 280.8143 0001914 247.0894 112.9756 15.27595533 64818
STARLINK-32741          
1 62526U 25004R   26058.01447134  .00022785  00000+0  83446-3 0  9998
2 62526  43.0005 276.9008 0001911 258.7906 101.2731 15.27599216 64862
STARLINK-32754          
1 62527U 25004S   26058.00114158  .00020069  00000+0  73644-3 0  9997
2 62527  43.0060 280.2628 0001873 284.5502  75.5142 15.27596830 63874
STARLINK-32786          
1 62528U 25004T   26058.03311396  .00026781  00000+0  97825-3 0  9998
2 62528  43.0020 279.6417 0001845 266.3760  93.6880 15.27611789 63884
